#aV2020  5 31  0  0  0.00000000     288 DD+AD WGS84 FIT  NGA
## 2108      0.00000000   300.00000000 59000 0.0000000000000
+   32     1  2  3  4  5  6  7  8  9 10 11 12 13 14 15 16 17
+         18 19 20 21 22 23 24 25 26 27 28 29 30 31 32  0  0
+          0  0  0  0  0  0  0  0  0  0  0  0  0  0  0  0  0
+          0  0  0  0  0  0  0  0  0  0  0  0  0  0  0  0  0
+          0  0  0  0  0  0  0  0  0  0  0  0  0  0  0  0  0
++         2  2  2  2  2  2  2  2  2  2  2  2  2  2  2  2  2
++         2  2  2  2  2  2  2  2  2  2  2  2  2  2  2  0  0
++         0  0  0  0  0  0  0  0  0  0  0  0  0  0  0  0  0
++         0  0  0  0  0  0  0  0  0  0  0  0  0  0  0  0  0
++         0  0  0  0  0  0  0  0  0  0  0  0  0  0  0  0  0
%c cc cc ccc ccc cccc cccc cccc cccc ccccc ccccc ccccc ccccc
%c cc cc ccc ccc cccc cccc cccc cccc ccccc ccccc ccccc ccccc
%f  0.0000000  0.000000000  0.00000000000  0.000000000000000
%f  0.0000000  0.000000000  0.00000000000  0.000000000000000
%i    0    0    0    0      0      0      0      0         0
%i    0    0    0    0      0      0      0      0         0
/*      NGA, ST. LOUIS,MO.                                  
/*   EPHEMERIS COMPUTED FROM 2 DAYS OF DATA                 
/*   EPOCHA v5 SMOOTHER                                     
/*   G1762 IERS2010 SATAF SATAPC                            
*  2020  5 31  7 15  0.00000000
P  1 -18313.100869  -9035.797784  16941.942093   -386.885679                    
V  1  -9780.327582 -19489.696327 -20366.206678     -0.030261                    
P  2  13500.169825  22831.351065   2474.878309   -464.597199                    
V  2  -3622.334382   -393.495917  31491.394536     -0.060680                    
P  3 -17342.236191   2737.792725  19835.753758   -193.391033                    
V  3  11505.363267 -22607.697193  13241.954296     -0.125085                    
P  4 -26569.796755   -278.229888   -569.162418    -96.375957                    
V  4   -664.836008  -2847.993761  31699.408040     -0.049014                    
P  5   6702.750794  16911.314816 -19421.995568    -13.710894                    
V  5 -12686.393263  20963.319661  14170.155305     -0.007395                    
P  6   4632.057142  23384.507467  11713.831445   -280.915237                    
V  6  -9117.490905 -11784.138601  27295.754652     -0.063887                    
P  7 -11813.329190   9828.659405 -21319.697764   -293.501490                    
V  7 -14318.292763 -23919.487925  -3530.817893     -0.087563                    
P  8 -23435.749005  -6856.160851 -10748.499210    -35.880099                    
V  8  13517.052140  -2328.883451 -27703.512569     -0.013459                    
P  9 -22647.085680   8411.883015 -11105.083869   -227.529027                    
V  9 -14094.199596  -2309.661954  27093.435903     -0.070905                    
P 10  11019.571718 -23839.533557   3071.507498   -357.250236                    
V 10   4348.195942  -1927.634938 -31696.025286     -0.113212                    
P 11 -23342.641492 -11527.584036   3844.024782   -262.125596                    
V 11  -2185.338624  -6853.873895 -30330.932389      0.106698                    
P 12  17040.520065  -1245.056098  20054.215185    111.652283                    
V 12 -13527.241400  22216.341922  12874.930188     -0.044370                    
P 13  16984.472315  13067.108096 -15869.839554     14.384987                    
V 13 -19944.291633   -697.719370 -21990.492974      0.031404                    
P 14  -2143.795007 -15482.658704  21839.939564     -9.251491                    
V 14  26833.488081   1740.192498   3747.505041      0.026499                    
P 15  24307.067873   5012.391986 -10280.141788   -227.518733                    
V 15 -12126.853815   4394.959730 -26992.478191      0.025993                    
P 16  -6338.247851 -15418.726982 -20784.809800   -164.672126                    
V 16  15557.427196 -20807.784244  11237.932782     -0.045986                    
P 17  -8361.022020  13871.289412  21463.133567    273.340367                    
V 17 -26158.737679  -1871.143053  -9206.377353      0.059965                    
P 18  11774.841804  -9817.813326 -21697.011802    206.296184                    
V 18  13601.562110  23923.796936  -3465.985947      0.113350                    
P 19    330.651912  14678.883010  21833.495979   -151.564818                    
V 19 -28271.340140  -2586.298512   2113.387855      0.050804                    
P 20  15189.734982 -19683.091455  -9104.423029    527.602540                    
V 20  -1100.853400  12027.679050 -28298.143513     -0.000672                    
P 21   6080.693022 -15930.584769 -19702.636672      5.571196                    
V 21  15922.450260  21365.868716 -11639.556631      0.048387                    
P 22 -14486.389949  -6715.843156  21439.977001   -780.221365                    
V 22  11147.242032 -24421.700853     23.575778      0.016583                    
P 23 -19754.200667  10801.176416 -14037.668220   -109.762203                    
V 23 -18407.856533  -1811.727689  23472.615309      0.031553                    
P 24  19739.985446   9575.117989  15022.930075    -13.694776                    
V 24   8825.806256  17376.418238 -22012.970638     -0.004878                    
P 25  18404.968164 -11541.074949  14863.842997      8.654428                    
V 25  -7694.071537  17930.404768  23334.322047      0.033885                    
P 26   1913.600763 -23210.777824 -12594.983070    216.552570                    
V 26   9928.185581 -12924.079273  25615.262368      0.070817                    
P 27 -14795.783681 -12379.381731 -18546.820738   -308.068972                    
V 27  23081.218543  -1198.614015 -17421.874354     -0.100389                    
P 28 -11788.435525  23374.170302   5498.970427    712.798621                    
V 28  -5207.477496   3926.289655 -31025.287890     -0.032083                    
P 29  24917.225236  -3999.616044  -8366.371232   -116.908192                    
V 29  10391.943179   2505.142740  29886.081263     -0.088558                    
P 30  -3826.154401  19607.007868 -17355.962506   -231.652926                    
V 30 -12540.032284 -18537.269537 -18346.153183     -0.080406                    
P 31  -5038.788433 -23796.150843  10060.012152    -45.983660                    
V 31   8847.637634   9957.581709  28319.372750     -0.024996                    
P 32   6723.862174 -14900.377496  20991.129289    291.083843                    
V 32  26513.424875    456.935983  -8345.674118      0.072609                    
EOF
